{"fetched_at":"2026-07-14T17:40:23.520Z","source":"https://celestrak.org/NORAD/elements/gp.php?GROUP=oneweb&FORMAT=JSON","constellation":"oneweb","records":[{"OBJECT_NAME":"ONEWEB-0634","OBJECT_ID":"2023-043AF","EPOCH":"2026-07-14T03:34:55.856640","CLASSIFICATION_TYPE":"U","MEAN_MOTION":13.1554904,"ECCENTRICITY":0.0002333,"INCLINATION":87.8985,"RA_OF_ASC_NODE":253.8573,"ARG_OF_PERICENTER":89.6137,"MEAN_ANOMALY":270.5261,"EPHEMERIS_TYPE":0,"NORAD_CAT_ID":56075,"ELEMENT_SET_NO":999,"REV_AT_EPOCH":15994,"BSTAR":0.000648,"MEAN_MOTION_DOT":0.00000257,"MEAN_MOTION_DDOT":0},{"OBJECT_NAME":"ONEWEB-0635","OBJECT_ID":"2023-043AG","EPOCH":"2026-07-14T03:28:04.908000","CLASSIFICATION_TYPE":"U","MEAN_MOTION":13.15548679,"ECCENTRICITY":0.0001813,"INCLINATION":87.8994,"RA_OF_ASC_NODE":253.823,"ARG_OF_PERICENTER":95.6649,"MEAN_ANOMALY":264.4688,"EPHEMERIS_TYPE":0,"NORAD_CAT_ID":56076,"ELEMENT_SET_NO":999,"REV_AT_EPOCH":15997,"BSTAR":0.00052255,"MEAN_MOTION_DOT":0.0000021,"MEAN_MOTION_DDOT":0},{"OBJECT_NAME":"ONEWEB-0636","OBJECT_ID":"2023-043AH","EPOCH":"2026-07-14T03:16:39.939168","CLASSIFICATION_TYPE":"U","MEAN_MOTION":13.15547545,"ECCENTRICITY":0.0001857,"INCLINATION":87.899,"RA_OF_ASC_NODE":253.8303,"ARG_OF_PERICENTER":97.3174,"MEAN_ANOMALY":262.8167,"EPHEMERIS_TYPE":0,"NORAD_CAT_ID":56077,"ELEMENT_SET_NO":999,"REV_AT_EPOCH":15995,"BSTAR":0.00015871,"MEAN_MOTION_DOT":7.3e-7,"MEAN_MOTION_DDOT":0},{"OBJECT_NAME":"ONEWEB-0637","OBJECT_ID":"2023-043AJ","EPOCH":"2026-07-14T03:07:32.596896","CLASSIFICATION_TYPE":"U","MEAN_MOTION":13.15548316,"ECCENTRICITY":0.0002044,"INCLINATION":87.8979,"RA_OF_ASC_NODE":253.8467,"ARG_OF_PERICENTER":89.639,"MEAN_ANOMALY":270.4974,"EPHEMERIS_TYPE":0,"NORAD_CAT_ID":56078,"ELEMENT_SET_NO":999,"REV_AT_EPOCH":15997,"BSTAR":0.00004254,"MEAN_MOTION_DOT":2.9e-7,"MEAN_MOTION_DDOT":0},{"OBJECT_NAME":"ONEWEB-0647","OBJECT_ID":"2023-043AK","EPOCH":"2026-07-14T04:50:13.081920","CLASSIFICATION_TYPE":"U","MEAN_MOTION":13.15549142,"ECCENTRICITY":0.0001998,"INCLINATION":87.8983,"RA_OF_ASC_NODE":253.8445,"ARG_OF_PERICENTER":100.2407,"MEAN_ANOMALY":259.8949,"EPHEMERIS_TYPE":0,"NORAD_CAT_ID":56079,"ELEMENT_SET_NO":999,"REV_AT_EPOCH":15997,"BSTAR":-0.00013901,"MEAN_MOTION_DOT":-4e-7,"MEAN_MOTION_DDOT":0},{"OBJECT_NAME":"ONEWEB-0651","OBJECT_ID":"2023-043AL","EPOCH":"2026-07-14T04:43:22.828800","CLASSIFICATION_TYPE":"U","MEAN_MOTION":13.15548109,"ECCENTRICITY":0.0001859,"INCLINATION":87.8984,"RA_OF_ASC_NODE":253.8388,"ARG_OF_PERICENTER":93.1387,"MEAN_ANOMALY":266.9956,"EPHEMERIS_TYPE":0,"NORAD_CAT_ID":56080,"ELEMENT_SET_NO":999,"REV_AT_EPOCH":16117,"BSTAR":-0.000011116,"MEAN_MOTION_DOT":9e-8,"MEAN_MOTION_DDOT":0},{"OBJECT_NAME":"ONEWEB-0718","OBJECT_ID":"2023-043AM","EPOCH":"2026-07-14T04:36:31.641696","CLASSIFICATION_TYPE":"U","MEAN_MOTION":13.15549316,"ECCENTRICITY":0.0002533,"INCLINATION":87.8989,"RA_OF_ASC_NODE":253.8205,"ARG_OF_PERICENTER":92.1503,"MEAN_ANOMALY":267.9917,"EPHEMERIS_TYPE":0,"NORAD_CAT_ID":56081,"ELEMENT_SET_NO":999,"REV_AT_EPOCH":15998,"BSTAR":-0.00034434,"MEAN_MOTION_DOT":-0.00000117,"MEAN_MOTION_DDOT":0},{"OBJECT_NAME":"ONEWEB-0561","OBJECT_ID":"2023-068A","EPOCH":"2026-07-14T04:00:35.754336","CLASSIFICATION_TYPE":"U","MEAN_MOTION":13.20770014,"ECCENTRICITY":0.0001745,"INCLINATION":87.9191,"RA_OF_ASC_NODE":269.0667,"ARG_OF_PERICENTER":104.2364,"MEAN_ANOMALY":255.8963,"EPHEMERIS_TYPE":0,"NORAD_CAT_ID":56710,"ELEMENT_SET_NO":999,"REV_AT_EPOCH":15306,"BSTAR":0.00023694,"MEAN_MOTION_DOT":0.00000109,"MEAN_MOTION_DDOT":0},{"OBJECT_NAME":"ONEWEB-0668","OBJECT_ID":"2023-068B","EPOCH":"2026-07-14T02:29:32.790336","CLASSIFICATION_TYPE":"U","MEAN_MOTION":13.16595168,"ECCENTRICITY":0.0002347,"INCLINATION":87.9081,"RA_OF_ASC_NODE":223.426,"ARG_OF_PERICENTER":81.936,"MEAN_ANOMALY":278.2037,"EPHEMERIS_TYPE":0,"NORAD_CAT_ID":56711,"ELEMENT_SET_NO":999,"REV_AT_EPOCH":15532,"BSTAR":-0.0001413,"MEAN_MOTION_DOT":-4.1e-7,"MEAN_MOTION_DDOT":0},{"OBJECT_NAME":"ONEWEB-0676","OBJECT_ID":"2023-068C","EPOCH":"2026-07-14T02:40:57.358272","CLASSIFICATION_TYPE":"U","MEAN_MOTION":13.16594104,"ECCENTRICITY":0.0001707,"INCLINATION":87.9081,"RA_OF_ASC_NODE":223.4305,"ARG_OF_PERICENTER":91.2981,"MEAN_ANOMALY":268.8345,"EPHEMERIS_TYPE":0,"NORAD_CAT_ID":56712,"ELEMENT_SET_NO":999,"REV_AT_EPOCH":15524,"BSTAR":-0.000012542,"MEAN_MOTION_DOT":8e-8,"MEAN_MOTION_DDOT":0},{"OBJECT_NAME":"ONEWEB-0677","OBJECT_ID":"2023-068D","EPOCH":"2026-07-14T03:43:39.080352","CLASSIFICATION_TYPE":"U","MEAN_MOTION":13.20771718,"ECCENTRICITY":0.0001869,"INCLINATION":87.9186,"RA_OF_ASC_NODE":269.0611,"ARG_OF_PERICENTER":87.8593,"MEAN_ANOMALY":272.2755,"EPHEMERIS_TYPE":0,"NORAD_CAT_ID":56713,"ELEMENT_SET_NO":999,"REV_AT_EPOCH":15336,"BSTAR":0.000074817,"MEAN_MOTION_DOT":4.3e-7,"MEAN_MOTION_DDOT":0},{"OBJECT_NAME":"ONEWEB-0678","OBJECT_ID":"2023-068E","EPOCH":"2026-07-14T03:50:54.100032","CLASSIFICATION_TYPE":"U","MEAN_MOTION":13.155483,"ECCENTRICITY":0.0002024,"INCLINATION":87.8996,"RA_OF_ASC_NODE":253.8213,"ARG_OF_PERICENTER":105.574,"MEAN_ANOMALY":254.5613,"EPHEMERIS_TYPE":0,"NORAD_CAT_ID":56714,"ELEMENT_SET_NO":999,"REV_AT_EPOCH":15283,"BSTAR":0.00054137,"MEAN_MOTION_DOT":0.00000217,"MEAN_MOTION_DDOT":0},{"OBJECT_NAME":"ONEWEB-0679","OBJECT_ID":"2023-068F","EPOCH":"2026-07-14T03:31:06.491424","CLASSIFICATION_TYPE":"U","MEAN_MOTION":13.16593285,"ECCENTRICITY":0.0001934,"INCLINATION":87.9081,"RA_OF_ASC_NODE":223.415,"ARG_OF_PERICENTER":81.0763,"MEAN_ANOMALY":279.0587,"EPHEMERIS_TYPE":0,"NORAD_CAT_ID":56715,"ELEMENT_SET_NO":999,"REV_AT_EPOCH":15527,"BSTAR":0.0001103,"MEAN_MOTION_DOT":5.5e-7,"MEAN_MOTION_DDOT":0},{"OBJECT_NAME":"ONEWEB-0680","OBJECT_ID":"2023-068G","EPOCH":"2026-07-14T04:41:05.476128","CLASSIFICATION_TYPE":"U","MEAN_MOTION":13.21825919,"ECCENTRICITY":0.0002221,"INCLINATION":87.9245,"RA_OF_ASC_NODE":238.5974,"ARG_OF_PERICENTER":81.8544,"MEAN_ANOMALY":278.2842,"EPHEMERIS_TYPE":0,"NORAD_CAT_ID":56716,"ELEMENT_SET_NO":999,"REV_AT_EPOCH":15466,"BSTAR":-0.00028244,"MEAN_MOTION_DOT":-0.00000104,"MEAN_MOTION_DDOT":0},{"OBJECT_NAME":"ONEWEB-0681","OBJECT_ID":"2023-068H","EPOCH":"2026-07-14T04:13:13.825344","CLASSIFICATION_TYPE":"U","MEAN_MOTION":13.21827668,"ECCENTRICITY":0.0001111,"INCLINATION":87.924,"RA_OF_ASC_NODE":238.6026,"ARG_OF_PERICENTER":92.8909,"MEAN_ANOMALY":267.2352,"EPHEMERIS_TYPE":0,"NORAD_CAT_ID":56717,"ELEMENT_SET_NO":999,"REV_AT_EPOCH":15465,"BSTAR":-0.00011149,"MEAN_MOTION_DOT":-3.3e-7,"MEAN_MOTION_DDOT":0},{"OBJECT_NAME":"ONEWEB-0682","OBJECT_ID":"2023-068J","EPOCH":"2026-07-14T04:25:07.715712","CLASSIFICATION_TYPE":"U","MEAN_MOTION":13.15548269,"ECCENTRICITY":0.0002189,"INCLINATION":87.8996,"RA_OF_ASC_NODE":253.8169,"ARG_OF_PERICENTER":85.8229,"MEAN_ANOMALY":274.3152,"EPHEMERIS_TYPE":0,"NORAD_CAT_ID":56718,"ELEMENT_SET_NO":999,"REV_AT_EPOCH":15300,"BSTAR":-0.00031138,"MEAN_MOTION_DOT":-0.00000104,"MEAN_MOTION_DDOT":0}]}
