ONEWEB-0634             
1 56075U 23043AF  26195.14925760  .00000257  00000+0  64800-3 0  9996
2 56075  87.8985 253.8573 0002333  89.6137 270.5261 13.15549040159941
ONEWEB-0635             
1 56076U 23043AG  26195.14450125  .00000210  00000+0  52255-3 0  9995
2 56076  87.8994 253.8230 0001813  95.6649 264.4688 13.15548679159974
ONEWEB-0636             
1 56077U 23043AH  26195.13657337  .00000073  00000+0  15871-3 0  9999
2 56077  87.8990 253.8303 0001857  97.3174 262.8167 13.15547545159955
ONEWEB-0637             
1 56078U 23043AJ  26195.13023839  .00000029  00000+0  42540-4 0  9999
2 56078  87.8979 253.8467 0002044  89.6390 270.4974 13.15548316159977
ONEWEB-0647             
1 56079U 23043AK  26195.20154030 -.00000040  00000+0 -13901-3 0  9999
2 56079  87.8983 253.8445 0001998 100.2407 259.8949 13.15549142159976
ONEWEB-0651             
1 56080U 23043AL  26195.19679200  .00000009  00000+0 -11116-4 0  9991
2 56080  87.8984 253.8388 0001859  93.1387 266.9956 13.15548109161172
ONEWEB-0718             
1 56081U 23043AM  26195.19203289 -.00000117  00000+0 -34434-3 0  9990
2 56081  87.8989 253.8205 0002533  92.1503 267.9917 13.15549316159980
ONEWEB-0561             
1 56710U 23068A   26195.16708049  .00000109  00000+0  23694-3 0  9992
2 56710  87.9191 269.0667 0001745 104.2364 255.8963 13.20770014153067
ONEWEB-0668             
1 56711U 23068B   26195.10385174 -.00000041  00000+0 -14130-3 0  9999
2 56711  87.9081 223.4260 0002347  81.9360 278.2037 13.16595168155327
ONEWEB-0676             
1 56712U 23068C   26195.11177498  .00000008  00000+0 -12542-4 0  9997
2 56712  87.9081 223.4305 0001707  91.2981 268.8345 13.16594104155247
ONEWEB-0677             
1 56713U 23068D   26195.15531343  .00000043  00000+0  74817-4 0  9996
2 56713  87.9186 269.0611 0001869  87.8593 272.2755 13.20771718153367
ONEWEB-0678             
1 56714U 23068E   26195.16034838  .00000217  00000+0  54137-3 0  9990
2 56714  87.8996 253.8213 0002024 105.5740 254.5613 13.15548300152831
ONEWEB-0679             
1 56715U 23068F   26195.14660291  .00000055  00000+0  11030-3 0  9992
2 56715  87.9081 223.4150 0001934  81.0763 279.0587 13.16593285155279
ONEWEB-0680             
1 56716U 23068G   26195.19520227 -.00000104  00000+0 -28244-3 0  9994
2 56716  87.9245 238.5974 0002221  81.8544 278.2842 13.21825919154663
ONEWEB-0681             
1 56717U 23068H   26195.17585446 -.00000033  00000+0 -11149-3 0  9994
2 56717  87.9240 238.6026 0001111  92.8909 267.2352 13.21827668154658
ONEWEB-0682             
1 56718U 23068J   26195.18411708 -.00000104  00000+0 -31138-3 0  9994
2 56718  87.8996 253.8169 0002189  85.8229 274.3152 13.15548269153001
